satname,norad_id,inclination_deg,eccentricity,mean_motion_rev_per_day,perigee_km,apogee_km,l1,l2
STARLINK-1227,45230,53.0554,0.0001579,15.0642379,546.0451449497241,548.2321469987228,1 45230U 20012BE  25272.53909639  .00021441  00000+0  14530-2 0  9997,2 45230  53.0554  10.0535 0001579  80.1673 279.9495 15.06423790311129
STARLINK-1238,45233,53.0354,0.0005557,16.08845122,246.3300574768955,253.69658374322262,1 45233U 20012BH  25272.46101691  .00972883  54776-3  10904-2 0  9993,2 45233  53.0354 331.6218 0005557  15.8612 344.2594 16.08845122311629
STARLINK-1246,45235,53.0565,0.0001303,15.06410073,546.2783169216236,548.083054710547,1 45235U 20012BK  25272.62017640  .00001415  00000+0  11384-3 0  9998,2 45235  53.0565  49.6838 0001303 103.7203 256.3931 15.06410073310589
STARLINK-1247,45236,53.0375,0.0004044,16.04832018,258.3735664190626,263.74334770473524,1 45236U 20012BL  25272.56209307  .00660880  22297-3  95066-3 0  9997,2 45236  53.0375 311.2635 0004044  27.9217  95.2044 16.04832018310940
STARLINK-1270,45237,53.0569,0.0001417,15.06402373,546.2229641845079,548.1856059046886,1 45237U 20012BM  25272.62386487 -.00001150  00000+0 -58327-4 0  9995,2 45237  53.0569   9.6672 0001417 109.8562 250.2580 15.06402373311126
STARLINK-1279,45360,53.0531,0.0001197,15.06437104,546.2688912457688,547.9267924669093,1 45360U 20019A   25272.05163212  .00016493  00000+0  11224-2 0  9992,2 45360  53.0531 142.2388 0001197  94.9993 265.1132 15.06437104305779
STARLINK-1301,45361,53.0531,0.0001483,15.06409355,546.1558614198766,548.2099112981705,1 45361U 20019B   25272.83581294  .00008036  00000+0  55760-3 0  9991,2 45361  53.0531 148.7201 0001483  96.7315 263.3842 15.06409355305765
STARLINK-1306,45362,53.0486,0.0009988,15.58656902,384.78169899660224,398.3048122752607,1 45362U 20019C   25272.91670139  .00124553  00000+0  15711-2 0  9992,2 45362  53.0486 148.6356 0009988 118.4912  26.7086 15.58656902  5822
STARLINK-1262,45366,53.0535,0.0001557,15.06398235,546.1386898016262,548.2952450270795,1 45366U 20019G   25272.00463335  .00023180  00000+0  15700-2 0  9996,2 45366  53.0535 172.4503 0001557  24.7943 335.3120 15.06398235305362
STARLINK-1273,45367,53.0534,0.000133,15.0640064,546.2885253338236,548.1306675284741,1 45367U 20019H   25272.09310619  .00001011  00000+0  86777-4 0  9995,2 45367  53.0534 172.0546 0001330  96.5826 263.5314 15.06400640305373
STARLINK-1276,45368,53.0519,0.0001117,15.06416303,546.3880361892388,547.935147894701,1 45368U 20019J   25272.72707454  .00008706  00000+0  60237-3 0  9993,2 45368  53.0519 169.2100 0001117  84.6098 275.5018 15.06416303305471
STARLINK-1277,45369,53.053,0.0001436,15.0645563,546.0466096770706,548.0355208174087,1 45369U 20019K   25271.92359559  .00023965  00000+0  16198-2 0  9994,2 45369  53.0530 173.4454 0001436  90.7172 269.3982 15.06455630305342
STARLINK-1281,45370,53.0546,0.0001453,15.06404777,546.1906661418188,548.2031681781455,1 45370U 20019L   25272.05255242 -.00004643  00000+0 -29293-3 0  9990,2 45370  53.0546 172.2400 0001453  91.7207 268.3948 15.06404777305378
STARLINK-1300,45374,53.053,0.0001201,15.06410756,546.3468621409111,548.0103229462393,1 45374U 20019Q   25272.00833215  .00016388  00000+0  11162-2 0  9993,2 45374  53.0530 172.4359 0001201  95.7656 264.3470 15.06410756305362
STARLINK-1302,45375,53.0534,0.0001419,15.06404236,546.2158701206699,548.1812803569228,1 45375U 20019R   25271.89037826  .00005179  00000+0  36626-3 0  9993,2 45375  53.0534 172.9661 0001419  88.5660 271.5492 15.06404236305342
STARLINK-1304,45376,53.0511,0.0001166,15.06402066,546.3977310495266,548.0127208566182,1 45376U 20019S   25272.10784240  .00005128  00000+0  36291-3 0  9990,2 45376  53.0511 171.9881 0001166  97.4722 262.6399 15.06402066305377
STARLINK-1305,45377,53.0527,0.0001069,15.06390742,546.4996097261146,547.9802553142881,1 45377U 20019T   25272.00095068 -.00003008  00000+0 -18317-3 0  9999,2 45377  53.0527 172.4646 0001069  97.2489 262.8622 15.06390742305367
STARLINK-1319,45379,53.0551,0.0001271,15.0641853,546.2745621556833,548.0349713227888,1 45379U 20019V   25272.72339360  .00001314  00000+0  10703-3 0  9993,2 45379  53.0551 169.2323 0001271  71.7797 288.3331 15.06418530305474
STARLINK-1258,45381,53.0378,0.0006228,16.14286805,230.9907593541093,239.22821918114096,1 45381U 20019X   25272.55343715  .01348039  13321-2  10604-2 0  9997,2 45381  53.0378  88.5929 0006228 267.8430  92.1892 16.14286805306571
STARLINK-1266,45383,53.0534,0.0001444,15.06398571,546.2159166567326,548.2159585851177,1 45383U 20019Z   25271.92909102  .00004347  00000+0  31053-3 0  9996,2 45383  53.0534 152.7933 0001444  89.1288 270.9866 15.06398571305623
STARLINK-1267,45384,53.0545,0.0001475,15.06391031,546.2175538009951,548.2605397347916,1 45384U 20019AA  25272.84328767 -.00002450  00000+0 -14566-3 0  9996,2 45384  53.0545 149.3418 0001475 101.7937 258.3217 15.06391031305750
STARLINK-1272,45386,53.0535,0.0001396,15.06400978,546.2417822705092,548.1753387510043,1 45386U 20019AC  25272.05441058  .00001810  00000+0  14034-3 0  9997,2 45386  53.0535 152.2292 0001396  93.3963 266.7186 15.06400978305648
STARLINK-1274,45387,53.0344,0.0007975,15.25419087,484.0503219782322,495.004246511603,1 45387U 20019AD  25272.72207666  .00087710  00000+0  33962-2 0  9990,2 45387  53.0344 139.2168 0007975 104.9734 255.2146 15.25419087305885
STARLINK-1280,45388,53.053,0.0001562,15.06421752,546.0631629618083,548.2266210248672,1 45388U 20019AE  25272.11152606  .00012212  00000+0  83683-3 0  9998,2 45388  53.0530 171.9727 0001562 116.0096 244.1054 15.06421752305367
STARLINK-1283,45389,53.0536,0.000197,15.06433212,545.7454961981521,548.4740434254572,1 45389U 20019AF  25272.09125271  .00021535  00000+0  14589-2 0  9990,2 45389  53.0536 152.0602 0001970 100.1479 259.9733 15.06433212305652
STARLINK-1284,45390,53.0533,0.0001141,15.06411359,546.3865661597893,547.9669227562745,1 45390U 20019AG  25271.93277167  .00012259  00000+0  84022-3 0  9999,2 45390  53.0533 152.7756 0001141 108.6758 251.4355 15.06411359305623
STARLINK-1292,45394,53.0491,0.0004475,15.76271475,338.0086631723898,344.02230464548757,1 45394U 20019AL  25272.91670139  .00249898  00000+0  15160-2 0  9995,2 45394  53.0491 116.3303 0004475 192.4941  92.6289 15.76271475  5923
STARLINK-1297,45395,53.0536,0.0001168,15.06397667,546.4098267097679,548.0275898032169,1 45395U 20019AM  25272.10231934  .00000184  00000+0  31232-4 0  9996,2 45395  53.0536 152.0131 0001168  91.8426 268.2697 15.06397667304837
STARLINK-1307,45397,53.0535,0.0001337,15.0642313,546.214759102355,548.0665783509712,1 45397U 20019AP  25272.09493873  .00012522  00000+0  85750-3 0  9990,2 45397  53.0535 152.0452 0001337  88.4665 271.6477 15.06423130305479
STARLINK-1312,45398,53.0479,0.000806,15.74993137,339.23214404902046,350.0692778390621,1 45398U 20019AQ  25272.91670139  .00351091  00000+0  22214-2 0  9996,2 45398  53.0479 115.8649 0008060 125.2439 325.3500 15.74993137  5959
STARLINK-1255,45399,53.0533,0.0001276,15.06431179,546.2323381592014,547.9996627249138,1 45399U 20019AR  25272.79250063  .00013985  00000+0  95510-3 0  9990,2 45399  53.0533 138.9162 0001276  77.5611 282.5521 15.06431179305701
STARLINK-1259,45403,53.0459,0.0004649,15.87952608,304.9153993440641,311.13219165171904,1 45403U 20019AV  25272.91670139  .00490317  00000+0  16768-2 0  9995,2 45403  53.0459  97.0731 0004649 110.7206  43.4806 15.87952608  5945
STARLINK-1260,45404,53.0535,0.0001157,15.06417771,546.3558363916563,547.9583494447579,1 45404U 20019AW  25272.62663350  .00002143  00000+0  16260-3 0  9995,2 45404  53.0535 139.6581 0001157  84.2938 275.8183 15.06417771305585
STARLINK-1263,45405,53.0527,0.0001422,15.06393394,546.2470170068345,548.2165918948203,1 45405U 20019AX  25272.08112569 -.00001505  00000+0 -82195-4 0  9991,2 45405  53.0527 142.1078 0001422  90.0800 270.0352 15.06393394305506
STARLINK-1265,45406,53.0529,0.0001225,15.06418105,546.3077208756413,548.0044176776146,1 45406U 20019AY  25271.88945186  .00006110  00000+0  42852-3 0  9998,2 45406  53.0529 142.9704 0001225  89.2053 270.9076 15.06418105305470
STARLINK-1278,45408,53.0528,0.0001408,15.06407591,546.2132069130648,548.1633785154945,1 45408U 20019BA  25272.11522194  .00012946  00000+0  88626-3 0  9990,2 45408  53.0528 171.9563 0001408  76.5340 283.5805 15.06407591305092
STARLINK-1296,45412,53.0534,0.0001195,15.06405123,546.3682794492433,548.0234340020015,1 45412U 20019BE  25272.62295809  .00007301  00000+0  50847-3 0  9994,2 45412  53.0534 139.6773 0001195  82.5459 277.5666 15.06405123305580
STARLINK-1298,45413,53.0495,0.0010468,15.44209766,426.5703764596292,440.8316405141968,1 45413U 20019BF  25272.75712594  .00134451  00000+0  28374-2 0  9990,2 45413  53.0495 124.6945 0010468 130.5751 229.6167 15.44209766305901
STARLINK-1309,45414,53.0538,0.0001485,15.06420285,546.1209830038733,548.1777930611197,1 45414U 20019BG  25272.83674634  .00010510  00000+0  72304-3 0  9994,2 45414  53.0538 138.7176 0001485  93.3252 266.7907 15.06420285305603
STARLINK-1316,45415,53.055,0.0001654,15.06372388,546.1507193851321,548.4416526830719,1 45415U 20019BH  25272.79619921  .00005954  00000+0  41856-3 0  9992,2 45415  53.0550 138.8932 0001654 100.8558 259.2617 15.06372388305638
STARLINK-1318,45416,53.053,4.86e-05,15.56472239,397.547071744566,398.20570024568406,1 45416U 20019BJ  25272.75162579  .00067195  00000+0  93130-3 0  9998,2 45416  53.0530 118.4985 0000486 210.0441 150.0542 15.56472239305902
STARLINK-1286,45417,53.0517,0.0001059,15.06412475,546.4399337605391,547.9067144871888,1 45417U 20019BK  25272.10416762  .00018548  00000+0  12604-2 0  9998,2 45417  53.0517 172.0074 0001059  76.0485 284.0621 15.06412475305365
STARLINK-1308,45419,53.052,0.0001419,15.06407441,546.2060487145818,548.1714561631243,1 45419U 20019BM  25272.10048207  .00003359  00000+0  24426-3 0  9995,2 45419  53.0520 172.0232 0001419  58.4709 301.6419 15.06407441305111
